OBJECT_NAME,OBJECT_ID,EPOCH,MEAN_MOTION,ECCENTRICITY,INCLINATION,RA_OF_ASC_NODE,ARG_OF_PERICENTER,MEAN_ANOMALY,EPHEMERIS_TYPE,CLASSIFICATION_TYPE,NORAD_CAT_ID,ELEMENT_SET_NO,REV_AT_EPOCH,BSTAR,MEAN_MOTION_DOT,MEAN_MOTION_DDOT
LEMUR-2-ALISIA,2025-009DB,2026-06-19T11:11:11.246496,15.02793987,.00022183,97.6942,252.6206,190.2166,169.9014,0,U,62706,999,10050,.45516808E-3,.6032E-4,0
LEMUR-2-ROUNDTRIPPER,2025-009DG,2026-06-19T11:44:25.435392,15.03824218,.00055659,97.7253,253.1657,124.2524,235.9229,0,U,62711,999,7797,.53854671E-3,.735E-4,0
LEMUR-2-MYNAMEISJEFF,2025-009DH,2026-06-19T11:42:07.226496,15.03828386,.00038092,97.7298,253.5464,145.2534,214.8940,0,U,62712,999,7797,.50269646E-3,.6855E-4,0
LEMUR-2-LEIA-PHILIP,2025-052AN,2026-06-19T06:35:59.949888,14.97322830,.00027772,97.6835,62.1912,203.1516,156.9581,0,U,63246,999,6898,.5109835E-4,.535E-5,0
LEMUR-2-LIA-MARTIN,2025-052AQ,2026-06-19T06:42:18.381888,14.97815202,.00029902,97.6887,62.6735,154.9077,205.2292,0,U,63248,999,6899,.2516687E-3,.2899E-4,0
LEMUR-2-DELOITTE-1,2025-052BB,2026-06-19T06:08:42.461664,14.97619025,.00035086,97.6922,62.9789,92.8328,267.3296,0,U,63259,999,6900,.32025658E-3,.3687E-4,0
LEMUR-2-EMERSONROSE,2025-052BD,2026-06-19T11:54:30.091104,14.99091663,.00017348,97.6877,63.7784,70.2238,289.9172,0,U,63261,999,6908,.23861433E-3,.2839E-4,0
LEMUR-2-MARACHE-FRAN,2025-052BE,2026-06-19T06:28:32.501568,15.00118773,.00051583,97.6935,63.8765,15.6075,344.5307,0,U,63262,999,6907,.33811729E-3,.416E-4,0
LEMUR-2-THEFALCONER,2025-052BG,2026-06-19T09:59:34.286784,14.97399209,.00023772,97.6853,62.7553,26.0562,334.0779,0,U,63264,999,6902,.22384561E-3,.2545E-4,0
LEMUR-2-UNTITLED-SC,2025-061A,2026-06-19T11:15:06.655392,15.13490185,.00169696,97.5638,145.8140,255.8226,104.1120,0,U,63351,999,6793,.18166712E-3,.3194E-4,0
LEMUR-2-ESPERANZA,2025-061B,2026-06-19T09:06:47.045952,15.13581763,.00165467,97.5645,145.8194,255.4833,104.4562,0,U,63352,999,6792,.144404E-3,.2531E-4,0
LEMUR-2-KREMPEL-BRO2,2025-061C,2026-06-19T11:19:53.650272,15.14019360,.00175821,97.5692,146.4474,246.8225,113.1154,0,U,63353,999,6795,.17459775E-3,.3115E-4,0
LEMUR-2-THERMORAPTOR,2025-061D,2026-06-19T09:18:43.841088,15.14099260,.00172748,97.5696,146.4399,245.9615,113.9809,0,U,63354,999,6794,.16142345E-3,.2881E-4,0
LEMUR-2-NEUROSPICY,2025-061E,2026-06-19T11:48:01.235808,15.14214211,.00150984,97.5626,146.1674,249.2222,110.7393,0,U,63355,999,6796,.17234489E-3,.3088E-4,0
LEMUR-2-TILLINFINITY,2025-061F,2026-06-19T12:37:31.081152,15.14799937,.00164847,97.5608,146.4935,236.2093,123.7569,0,U,63356,999,6799,.15161111E-3,.2755E-4,0
LEMUR-2-KREMPEL-BRO1,2025-061G,2026-06-19T11:59:44.934432,15.14604861,.00171072,97.5612,146.3830,237.7923,122.1651,0,U,63357,999,6798,.15468657E-3,.2798E-4,0
LEMUR-2-LANGER2SPACE,2025-061H,2026-06-19T11:03:25.612704,15.14302187,.00149965,97.5616,146.1570,247.5926,112.3717,0,U,63358,999,6796,.15920354E-3,.2854E-4,0
LEMUR-2-BALTO,2025-052BH,2026-06-19T12:30:44.105184,15.00108749,.00068874,97.6898,64.1021,51.9586,308.2259,0,U,63395,999,6911,.39663533E-3,.489E-4,0
LEMUR-2-KRISH,2025-135AK,2026-06-19T13:10:15.209760,14.96228251,.0001665,97.7755,285.4088,97.5990,262.5421,0,U,64561,999,5427,.34240552E-3,.3805E-4,0
LEMUR-2-HUBBLE-4,2025-135AP,2026-06-19T13:10:16.135968,14.93203864,.0000897,97.7702,284.4259,288.3995,71.7127,0,U,64565,999,5422,.11026535E-3,.1095E-4,0
LEMUR-2-SEJONG-2,2025-135BL,2026-06-19T13:52:18.925248,14.96710158,.00035908,97.7686,285.5823,328.4648,31.6358,0,U,64586,999,5430,.29030233E-3,.3258E-4,0
LEMUR-2-HUBBLE-5,2025-135BT,2026-06-19T13:38:25.661184,14.94140444,.0004883,97.7721,285.0832,345.1307,14.9769,0,U,64840,999,5426,.79277573E-4,.791E-5,0
LEMUR-2-KARENDARRELL,2025-135BU,2026-06-19T14:04:06.040992,15.00138144,.00098712,97.7682,286.7899,192.8070,167.2904,0,U,64841,999,5437,.50287603E-3,.6224E-4,0
LEMUR-2-LUCILLE-ROSE,2025-135BV,2026-06-19T13:26:08.350368,15.00176766,.00114018,97.7764,286.7860,273.6348,86.3572,0,U,65403,999,4899,.40596519E-3,.5018E-4,0
LEMUR-2-AFFIE-WAUWIE,2025-248C,2026-06-19T03:34:26.683680,15.27203290,.00073268,45.3921,104.3599,97.1817,262.9905,0,U,66295,999,3489,.57489484E-3,.15354E-3,0
LEMUR-2-DEANANDMAEVE,2025-276N,2026-06-19T11:41:58.315200,15.19756626,.00054892,97.4207,243.9249,6.9277,353.2033,0,U,66678,999,3076,.26590134E-3,.5621E-4,0
LEMUR-2-STAS-GORBUK,2025-276W,2026-06-19T04:09:27.244800,15.19398174,.00049181,97.4242,243.6708,8.8081,351.3239,0,U,66686,999,3071,.21062831E-3,.4391E-4,0
LEMUR-2-TEODOR,2025-276DG,2026-06-19T13:11:21.239232,15.21071276,.00022221,97.4148,244.2802,114.7596,245.3872,0,U,66768,999,3080,.22079759E-3,.4838E-4,0
LEMUR-2-LAILA,2025-276DQ,2026-06-19T10:58:34.774752,15.21292985,.00023476,97.4170,244.3116,132.9516,227.1917,0,U,66776,999,3079,.21507882E-3,.4741E-4,0
