LEMUR-2-ALISIA          
1 62706U 25009DB  26170.46610239  .00006032  00000+0  45517-3 0  9999
2 62706  97.6942 252.6206 0002218 190.2166 169.9014 15.02793987100508
LEMUR-2-ROUNDTRIPPER    
1 62711U 25009DG  26170.48918328  .00007350  00000+0  53855-3 0  9995
2 62711  97.7253 253.1657 0005565 124.2524 235.9229 15.03824218 77978
LEMUR-2-MYNAMEISJEFF    
1 62712U 25009DH  26170.48758364  .00006855  00000+0  50270-3 0  9995
2 62712  97.7298 253.5464 0003809 145.2534 214.8940 15.03828386 77977
LEMUR-2-LEIA-PHILIP     
1 63246U 25052AN  26170.27499942  .00000535  00000+0  51098-4 0  9996
2 63246  97.6835  62.1912 0002777 203.1516 156.9581 14.97322830 68988
LEMUR-2-LIA-MARTIN      
1 63248U 25052AQ  26170.27937942  .00002899  00000+0  25167-3 0  9997
2 63248  97.6887  62.6735 0002990 154.9077 205.2292 14.97815202 68995
LEMUR-2-DELOITTE-1      
1 63259U 25052BB  26170.25604701  .00003687  00000+0  32026-3 0  9999
2 63259  97.6922  62.9789 0003508  92.8328 267.3296 14.97619025 69005
LEMUR-2-EMERSONROSE     
1 63261U 25052BD  26170.49618161  .00002839  00000+0  23861-3 0  9998
2 63261  97.6877  63.7784 0001734  70.2238 289.9172 14.99091663 69085
LEMUR-2-MARACHE-FRAN    
1 63262U 25052BE  26170.26982062  .00004160  00000+0  33812-3 0  9994
2 63262  97.6935  63.8765 0005158  15.6075 344.5307 15.00118773 69079
LEMUR-2-THEFALCONER     
1 63264U 25052BG  26170.41636906  .00002545  00000+0  22385-3 0  9994
2 63264  97.6853  62.7553 0002377  26.0562 334.0779 14.97399209 69022
LEMUR-2-UNTITLED-SC     
1 63351U 25061A   26170.46882703  .00003194  00000+0  18167-3 0  9998
2 63351  97.5638 145.8140 0016969 255.8226 104.1120 15.13490185 67933
LEMUR-2-ESPERANZA       
1 63352U 25061B   26170.37971118  .00002531  00000+0  14440-3 0  9992
2 63352  97.5645 145.8194 0016546 255.4833 104.4562 15.13581763 67927
LEMUR-2-KREMPEL-BRO2    
1 63353U 25061C   26170.47214873  .00003115  00000+0  17460-3 0  9996
2 63353  97.5692 146.4474 0017582 246.8225 113.1154 15.14019360 67955
LEMUR-2-THERMORAPTOR    
1 63354U 25061D   26170.38800742  .00002881  00000+0  16142-3 0  9998
2 63354  97.5696 146.4399 0017274 245.9615 113.9809 15.14099260 67948
LEMUR-2-NEUROSPICY      
1 63355U 25061E   26170.49168097  .00003088  00000+0  17234-3 0  9994
2 63355  97.5626 146.1674 0015098 249.2222 110.7393 15.14214211 67968
LEMUR-2-TILLINFINITY    
1 63356U 25061F   26170.52605418  .00002755  00000+0  15161-3 0  9999
2 63356  97.5608 146.4935 0016484 236.2093 123.7569 15.14799937 67999
LEMUR-2-KREMPEL-BRO1    
1 63357U 25061G   26170.49982563  .00002798  00000+0  15469-3 0  9993
2 63357  97.5612 146.3830 0017107 237.7923 122.1651 15.14604861 67984
LEMUR-2-LANGER2SPACE    
1 63358U 25061H   26170.46071311  .00002854  00000+0  15920-3 0  9996
2 63358  97.5616 146.1570 0014996 247.5926 112.3717 15.14302187 67961
LEMUR-2-BALTO           
1 63395U 25052BH  26170.52134381  .00004890  00000+0  39664-3 0  9994
2 63395  97.6898  64.1021 0006887  51.9586 308.2259 15.00108749 69113
LEMUR-2-KRISH           
1 64561U 25135AK  26170.54878715  .00003805  00000+0  34241-3 0  9991
2 64561  97.7755 285.4088 0001665  97.5990 262.5421 14.96228251 54276
LEMUR-2-HUBBLE-4        
1 64565U 25135AP  26170.54879787  .00001095  00000+0  11027-3 0  9991
2 64565  97.7702 284.4259 0000897 288.3995  71.7127 14.93203864 54220
LEMUR-2-SEJONG-2        
1 64586U 25135BL  26170.57799682  .00003258  00000+0  29030-3 0  9998
2 64586  97.7686 285.5823 0003590 328.4648  31.6358 14.96710158 54309
LEMUR-2-HUBBLE-5        
1 64840U 25135BT  26170.56835256  .00000791  00000+0  79278-4 0  9997
2 64840  97.7721 285.0832 0004883 345.1307  14.9769 14.94140444 54269
LEMUR-2-KARENDARRELL    
1 64841U 25135BU  26170.58618103  .00006224  00000+0  50288-3 0  9996
2 64841  97.7682 286.7899 0009871 192.8070 167.2904 15.00138144 54370
LEMUR-2-LUCILLE-ROSE    
1 65403U 25135BV  26170.55981887  .00005018  00000+0  40597-3 0  9992
2 65403  97.7764 286.7860 0011401 273.6348  86.3572 15.00176766 48997
LEMUR-2-AFFIE-WAUWIE    
1 66295U 25248C   26170.14891995  .00015354  00000+0  57489-3 0  9994
2 66295  45.3921 104.3599 0007326  97.1817 262.9905 15.27203290 34894
LEMUR-2-DEANANDMAEVE    
1 66678U 25276N   26170.48748050  .00005621  00000+0  26590-3 0  9995
2 66678  97.4207 243.9249 0005489   6.9277 353.2033 15.19756626 30767
LEMUR-2-STAS-GORBUK     
1 66686U 25276W   26170.17323200  .00004391  00000+0  21063-3 0  9999
2 66686  97.4242 243.6708 0004918   8.8081 351.3239 15.19398174 30714
LEMUR-2-TEODOR          
1 66768U 25276DG  26170.54955138  .00004838  00000+0  22080-3 0  9998
2 66768  97.4148 244.2802 0002222 114.7596 245.3872 15.21071276 30805
LEMUR-2-LAILA           
1 66776U 25276DQ  26170.45734693  .00004741  00000+0  21508-3 0  9995
2 66776  97.4170 244.3116 0002347 132.9516 227.1917 15.21292985 30798
